ONEWEB-0258             
1 48976U 21060K   25081.15041650  .00000068  00000+0  14298-3 0  9991
2 48976  87.9079 318.9074 0001665  79.4893 280.6425 13.16592048180113
ONEWEB-0259             
1 48977U 21060L   25081.60008330 -.00000029  00000+0 -10971-3 0  9993
2 48977  87.9080 318.8024 0001684  76.4229 283.7089 13.16594317180202
ONEWEB-0260             
1 48978U 21060M   25081.59137050 -.00000031  00000+0 -11471-3 0  9993
2 48978  87.9079 318.8340 0002154  90.5827 269.5551 13.16592414180185
ONEWEB-0261             
1 48979U 21060N   25081.56128873 -.00000004  00000+0 -43497-4 0  9998
2 48979  87.9081 318.8408 0002145  74.5523 285.5845 13.16593339180236
ONEWEB-0262             
1 48980U 21060P   25081.61749170  .00000039  00000+0  68487-4 0  9997
2 48980  87.9078 318.7861 0001579  71.3728 288.7574 13.16592963180201
ONEWEB-0263             
1 48981U 21060Q   25081.57315845  .00000082  00000+0  18010-3 0  9995
2 48981  87.9081 318.8197 0001954  70.4941 289.6401 13.16592144180168
ONEWEB-0266             
1 48984U 21060T   25081.40375362  .00000028  00000+0  39835-4 0  9999
2 48984  87.9077 318.8330 0001499  78.6520 281.4779 13.16593270180138
